      2.10          N: GNSS NAV DATA                        RINEX VERSION / TYPE
fic2rin                                 01/01/2023 00:17:32 PGM / RUN BY / DATE
                                                            END OF HEADER
20 22 12 31 18  0  0.0  .460001640022D-03 -.238742359215D-11  .000000000000D+00
     .640000000000D+02 -.105312500000D+02  .471448209139D-08 -.235922554820D+01
    -.556930899620D-06  .462632358540D-02  .834651291370D-05  .515371921730D+04
     .583200000000D+06 -.391155481339D-07 -.395721770349D+00 -.428408384323D-07
     .946616531178D+00  .209906250000D+03 -.297087498672D+01 -.814891086342D-08
     .425732019162D-09  .100000000000D+01  .224200000000D+04  .000000000000D+00
     .485000000000D+01  .000000000000D+00 -.838190317154D-08  .640000000000D+02
     .576000000000D+06  .400000000000D+01
7  22 12 31 17 59 44.0  .266133341938D-03 -.591171556152D-11  .000000000000D+00
     .120000000000D+02  .656250000000D+01  .468519515718D-08  .234781521435D+01
     .188127160072D-06  .165594972204D-01  .100135803223D-04  .515360909843D+04
     .583184000000D+06 -.502914190292D-07  .186602065900D+01 -.333413481712D-06
     .950106992273D+00  .181937500000D+03 -.223283657689D+01 -.783782647693D-08
    -.172864343351D-09  .100000000000D+01  .224200000000D+04  .000000000000D+00
     .240000000000D+01  .000000000000D+00 -.111758708954D-07  .120000000000D+02
     .576480000000D+06  .400000000000D+01
18 22 12 31 18 29 36.0 -.807577744126D-04 -.150066625793D-10  .000000000000D+00
     .140000000000D+02 -.677187500000D+02  .407016953890D-08 -.293530991507D+01
    -.346638262272D-05  .296627159696D-02  .910460948944D-05  .515370761871D+04
     .584976000000D+06 -.279396772385D-07 -.126008929473D+01  .000000000000D+00
     .972930230312D+00  .209968750000D+03 -.310630626491D+01 -.786354183380D-08
    -.317870383435D-10  .100000000000D+01  .224200000000D+04  .000000000000D+00
     .240000000000D+01  .000000000000D+00 -.838190317154D-08  .782000000000D+03
     .577800000000D+06  .400000000000D+01
7  22 12 31 19 59 44.0  .266090966761D-03 -.591171556152D-11  .000000000000D+00
     .130000000000D+02  .500000000000D+00  .467448042516D-08 -.288511559388D+01
    -.139698386192D-06  .165604199283D-01  .102166086435D-04  .515360719681D+04
     .590384000000D+06  .109896063805D-06  .186596480625D+01 -.221654772758D-06
     .950105982859D+00  .175906250000D+03 -.223286869818D+01 -.776568061463D-08
    -.162506769059D-09  .100000000000D+01  .224200000000D+04  .000000000000D+00
     .240000000000D+01  .000000000000D+00 -.111758708954D-07  .130000000000D+02
     .583200000000D+06  .400000000000D+01
1  22 12 31 20  0  0.0  .230290461332D-03 -.500222085975D-11  .000000000000D+00
     .330000000000D+02 -.701250000000D+02  .363586573412D-08 -.227450260941D+01
    -.358559191227D-05  .121600673301D-01  .830367207527D-05  .515365581322D+04
     .590400000000D+06  .931322574615D-07 -.126326595550D+01 -.102445483208D-06
     .989060417719D+00  .233031250000D+03  .937976345360D+00 -.751674167389D-08
     .857178562071D-11  .100000000000D+01  .224200000000D+04  .000000000000D+00
     .240000000000D+01  .000000000000D+00  .465661287308D-08  .330000000000D+02
     .583200000000D+06  .400000000000D+01
2  22 12 31 20  0  0.0 -.629977788776D-03  .216004991671D-11  .000000000000D+00
     .730000000000D+02 -.654062500000D+02  .407516974718D-08  .304523638543D+01
    -.333786010742D-05  .201009418815D-01  .796467065811D-05  .515369655800D+04
     .590400000000D+06  .264495611191D-06 -.135912365094D+01  .100582838058D-06
     .966787873247D+00  .225406250000D+03 -.134692296683D+01 -.762781772923D-08
    -.157863718515D-09  .100000000000D+01  .224200000000D+04  .000000000000D+00
     .240000000000D+01  .000000000000D+00 -.176951289177D-07  .730000000000D+02
     .583200000000D+06  .400000000000D+01
5  22 12 31 20  0  0.0 -.110219232738D-03 -.147792889038D-11  .000000000000D+00
     .740000000000D+02 -.103125000000D+02  .440446917811D-08  .279741067653D+00
    -.406056642532D-06  .581428862642D-02  .810436904430D-05  .515358731079D+04
     .590400000000D+06 -.130385160446D-06 -.275984171140D+00  .782310962677D-07
     .964214455517D+00  .226250000000D+03  .113818510945D+01 -.806355016494D-08
     .360014996070D-09  .100000000000D+01  .224200000000D+04  .000000000000D+00
     .240000000000D+01  .000000000000D+00 -.111758708954D-07  .740000000000D+02
     .583200000000D+06  .400000000000D+01
3  22 12 31 20  0  0.0 -.374294817448D-03  .113686837722D-11  .000000000000D+00
     .510000000000D+02 -.155937500000D+02  .404874007485D-08  .286748192606D+01
    -.745058059692D-06  .442761520389D-02  .850111246109D-05  .515374641228D+04
     .590400000000D+06 -.186264514923D-08 -.231367010073D+00 -.260770320892D-07
     .977202084229D+00  .222562500000D+03  .103568947150D+01 -.770317801114D-08
     .391444876679D-09  .100000000000D+01  .224200000000D+04  .000000000000D+00
     .240000000000D+01  .000000000000D+00  .186264514923D-08  .510000000000D+02
     .583200000000D+06  .400000000000D+01
8  22 12 31 20  0  0.0 -.101359095424D-03 -.181898940355D-11  .000000000000D+00
     .800000000000D+02  .165625000000D+01  .478198490315D-08 -.152125866710D-01
    -.558793544769D-08  .806630484294D-02  .308640301228D-05  .515363602066D+04
     .590400000000D+06  .113621354103D-06 -.235130076443D+01  .949949026108D-07
     .960839876552D+00  .317687500000D+03  .183409252166D+00 -.853499837408D-08
    -.201079804352D-09  .100000000000D+01  .224200000000D+04  .000000000000D+00
     .340000000000D+01  .000000000000D+00  .512227416039D-08  .800000000000D+02
     .583200000000D+06  .400000000000D+01
6  22 12 31 20  0  0.0  .550712458789D-03  .682121026330D-11  .000000000000D+00
     .550000000000D+02 -.525625000000D+02  .375551357507D-08 -.199367063058D+01
    -.270642340183D-05  .281446706504D-02  .792182981968D-05  .515358766937D+04
     .590400000000D+06 -.149011611938D-07 -.127156401452D+01  .577419996262D-07
     .988323257688D+00  .244625000000D+03 -.895042486592D+00 -.776710924556D-08
    -.710743891050D-10  .100000000000D+01  .224200000000D+04  .000000000000D+00
     .240000000000D+01  .000000000000D+00  .372529029846D-08  .550000000000D+02
     .583200000000D+06  .400000000000D+01
4  22 12 31 20  0  0.0 -.578220933676D-04  .738964445191D-11  .000000000000D+00
     .158000000000D+03 -.238750000000D+02  .476412701644D-08 -.421562503679D+00
    -.125728547573D-05  .225485162809D-02  .628270208836D-05  .515371743584D+04
     .590400000000D+06  .577419996262D-07  .849536288265D+00  .558793544769D-08
     .962101007026D+00  .257500000000D+03 -.309396351682D+01 -.816712590786D-08
    -.285726187357D-11  .100000000000D+01  .224200000000D+04  .000000000000D+00
     .240000000000D+01  .000000000000D+00 -.465661287308D-08  .926000000000D+03
     .583200000000D+06  .400000000000D+01
17 22 12 31 20  0  0.0  .690099783242D-03  .284217094304D-11  .000000000000D+00
     .150000000000D+02 -.709375000000D+01  .439982612756D-08 -.544940246834D-01
    -.439584255219D-06  .138315019431D-01  .414066016674D-05  .515368591690D+04
     .590400000000D+06 -.195577740669D-06 -.226453670821D+01 -.577419996262D-07
     .976241248412D+00  .311125000000D+03 -.143694540389D+01 -.842427947648D-08
    -.152149194768D-09  .100000000000D+01  .224200000000D+04  .000000000000D+00
     .240000000000D+01  .000000000000D+00 -.111758708954D-07  .150000000000D+02
     .583200000000D+06  .400000000000D+01
12 22 12 31 20  0  0.0 -.322597566992D-03 -.454747350886D-11  .000000000000D+00
     .340000000000D+02  .883125000000D+02  .436053877680D-08  .262656566410D+01
     .445917248726D-05  .878374767490D-02  .668130815029D-05  .515369000816D+04
     .590400000000D+06  .931322574615D-07  .298013895642D+01 -.894069671631D-07
     .967138862404D+00  .249562500000D+03  .132429180262D+01 -.791711549392D-08
     .475019786481D-10  .100000000000D+01  .224200000000D+04  .000000000000D+00
     .240000000000D+01  .000000000000D+00 -.125728547573D-07  .340000000000D+02
     .583200000000D+06  .400000000000D+01
31 22 12 31 20  0  0.0 -.204957555979D-03 -.113686837722D-11  .000000000000D+00
     .500000000000D+02  .113437500000D+02  .463626454760D-08  .282577032365D+01
     .517815351486D-06  .107844762970D-01  .111367553473D-04  .515363789749D+04
     .590400000000D+06 -.102445483208D-06  .188534283418D+01 -.137835741043D-06
     .954241568883D+00  .160312500000D+03  .488384296172D+00 -.780675375406D-08
    -.265011038773D-09  .100000000000D+01  .224200000000D+04  .000000000000D+00
     .240000000000D+01  .000000000000D+00 -.135041773319D-07  .500000000000D+02
     .583200000000D+06  .400000000000D+01
32 22 12 31 20  0  0.0 -.348774716258D-03 -.127329258248D-10  .000000000000D+00
     .280000000000D+02 -.199062500000D+02  .489484674716D-08  .678500897532D+00
    -.110082328320D-05  .639890704770D-02  .659935176373D-05  .515368424225D+04
     .590400000000D+06 -.689178705215D-07  .806567496477D+00  .782310962677D-07
     .959019991832D+00  .251312500000D+03 -.228472662934D+01 -.828284501374D-08
    -.664313385605D-10  .100000000000D+01  .224200000000D+04  .000000000000D+00
     .240000000000D+01  .000000000000D+00  .465661287308D-09  .280000000000D+02
     .583200000000D+06  .400000000000D+01
